CTC2_L_00626007-03
1 49318U 25758JB  26037.47799769  .00000000  00000+0  00000-0 0  9997
2 49318  60.0000 180.0000 0000000   0.0000 144.0000  4.55247068    13
CTC2_L_00626007-04
1 49319U 22094AA  26037.47799769  .00000000  00000+0  00000-0 0  9998
2 49319  60.0000 180.0000 0000000   0.0000 180.0000  4.55247068    14
CTC2_L_00626007-05
1 49320U 25447FR  26037.47799769  .00000000  00000+0  00000-0 0  9995
2 49320  60.0000 180.0000 0000000   0.0000 216.0000  4.55247068    16
CTC2_L_00626007-06
1 49321U 25549BI  26037.47799769  .00000000  00000+0  00000-0 0  9999
2 49321  60.0000 180.0000 0000000   0.0000 252.0000  4.55247068    17
CTC2_L_00626007-07
1 49322U 24240UN  26037.47799769  .00000000  00000+0  00000-0 0  9997
2 49322  60.0000 180.0000 0000000   0.0000 288.0000  4.55247068    17
CTC2_L_00626007-08
1 49323U 25086YJ  26037.47799769  .00000000  00000+0  00000-0 0  9997
2 49323  60.0000 180.0000 0000000   0.0000 324.0000  4.55247068    19
CTC2_L_00626007-09
1 49324U 26105PA  26037.47799769  .00000000  00000+0  00000-0 0  9991
2 49324  60.0000 180.0000 0000000   0.0000   0.0000  4.55247068    11
CTC2_L_00626007-10
1 49325U 26425EQ  26037.47799769  .00000000  00000+0  00000-0 0  9997
2 49325  60.0000 180.0000 0000000   0.0000  36.0000  4.55247068    11
CTC2_L_00626008-01
1 49326U 24495SN  26037.47799769  .00000000  00000+0  00000-0 0  9993
2 49326  60.0000 210.0000 0000000   0.0000  84.0000  4.55247068    19
CTC2_L_00626008-02
1 49327U 23324OM  26037.47799769  .00000000  00000+0  00000-0 0  9994
2 49327  60.0000 210.0000 0000000   0.0000 120.0000  4.55247068    11
CTC2_L_00626008-03
1 49328U 23421ED  26037.47799769  .00000000  00000+0  00000-0 0  9993
2 49328  60.0000 210.0000 0000000   0.0000 156.0000  4.55247068    11
CTC2_L_00626008-04
1 49329U 26822W   26037.47799769  .00000000  00000+0  00000-0 0  9992
2 49329  60.0000 210.0000 0000000   0.0000 192.0000  4.55247068    12
CTC2_L_00626008-05
1 49330U 22594JT  26037.47799769  .00000000  00000+0  00000-0 0  9996
2 49330  60.0000 210.0000 0000000   0.0000 228.0000  4.55247068    14
CTC2_L_00626008-06
1 49331U 25048VG  26037.47799769  .00000000  00000+0  00000-0 0  9994
2 49331  60.0000 210.0000 0000000   0.0000 264.0000  4.55247068    15
CTC2_L_00626008-07
1 49332U 24807DK  26037.47799769  .00000000  00000+0  00000-0 0  9997
2 49332  60.0000 210.0000 0000000   0.0000 300.0000  4.55247068    17
CTC2_L_00626008-08
1 49333U 26059EH  26037.47799769  .00000000  00000+0  00000-0 0  9999
2 49333  60.0000 210.0000 0000000   0.0000 336.0000  4.55247068    17
CTC2_L_00626008-09
1 49334U 26731RU  26037.47799769  .00000000  00000+0  00000-0 0  9997
2 49334  60.0000 210.0000 0000000   0.0000  12.0000  4.55247068    19
CTC2_L_00626008-10
1 49335U 23363JZ  26037.47799769  .00000000  00000+0  00000-0 0  9996
2 49335  60.0000 210.0000 0000000   0.0000  48.0000  4.55247068    19
CTC2_L_00626009-01
1 49336U 24167JL  26037.47799769  .00000000  00000+0  00000-0 0  9990
2 49336  60.0000 240.0000 0000000   0.0000  96.0000  4.55247068    16
CTC2_L_00626009-02
1 49337U 23481WS  26037.47799769  .00000000  00000+0  00000-0 0  9999
2 49337  60.0000 240.0000 0000000   0.0000 132.0000  4.55247068    18
CTC2_L_00626009-03
1 49338U 23836OX  26037.47799769  .00000000  00000+0  00000-0 0  9994
2 49338  60.0000 240.0000 0000000   0.0000 168.0000  4.55247068    18
CTC2_L_00626009-04
1 49339U 23183HE  26037.47799769  .00000000  00000+0  00000-0 0  9990
2 49339  60.0000 240.0000 0000000   0.0000 204.0000  4.55247068    10
CTC2_L_00626009-05
1 49340U 23337NH  26037.47799769  .00000000  00000+0  00000-0 0  9993
2 49340  60.0000 240.0000 0000000   0.0000 240.0000  4.55247068    12
CTC2_L_00626009-06
1 49341U 22313NV  26037.47799769  .00000000  00000+0  00000-0 0  9997
2 49341  60.0000 240.0000 0000000   0.0000 276.0000  4.55247068    12
CTC2_L_00626009-07
1 49342U 25556NH  26037.47799769  .00000000  00000+0  00000-0 0  9990
2 49342  60.0000 240.0000 0000000   0.0000 312.0000  4.55247068    14
CTC2_L_00626009-08
1 49343U 25041CT  26037.47799769  .00000000  00000+0  00000-0 0  9990
2 49343  60.0000 240.0000 0000000   0.0000 348.0000  4.55247068    14
CTC2_L_00626009-09
1 49344U 24340FM  26037.47799769  .00000000  00000+0  00000-0 0  9992
2 49344  60.0000 240.0000 0000000   0.0000  24.0000  4.55247068    16
CTC2_L_00626009-10
1 49345U 26662HQ  26037.47799769  .00000000  00000+0  00000-0 0  9992
2 49345  60.0000 240.0000 0000000   0.0000  60.0000  4.55247068    17
CTC2_L_00626010-01
1 49346U 24081WL  26037.47799769  .00000000  00000+0  00000-0 0  9996
2 49346  60.0000 270.0000 0000000   0.0000 108.0000  4.55247068    14
CTC2_L_00626010-02
1 49347U 22879IH  26037.47799769  .00000000  00000+0  00000-0 0  9990
2 49347  60.0000 270.0000 0000000   0.0000 144.0000  4.55247068    15
CTC2_L_00626010-03
1 49348U 22319UF  26037.47799769  .00000000  00000+0  00000-0 0  9990
2 49348  60.0000 270.0000 0000000   0.0000 180.0000  4.55247068    16
CTC2_L_00626010-04
1 49349U 24323ZF  26037.47799769  .00000000  00000+0  00000-0 0  9998
2 49349  60.0000 270.0000 0000000   0.0000 216.0000  4.55247068    17
CTC2_L_00626010-05
1 49350U 24870GI  26037.47799769  .00000000  00000+0  00000-0 0  9997
2 49350  60.0000 270.0000 0000000   0.0000 252.0000  4.55247068    19
CTC2_L_00626010-06
1 49351U 24434ZD  26037.47799769  .00000000  00000+0  00000-0 0  9994
2 49351  60.0000 270.0000 0000000   0.0000 288.0000  4.55247068    19
CTC2_L_00626010-07
1 49352U 25693DR  26037.47799769  .00000000  00000+0  00000-0 0  9993
2 49352  60.0000 270.0000 0000000   0.0000 324.0000  4.55247068    11
CTC2_L_00626010-08
1 49353U 22429YB  26037.47799769  .00000000  00000+0  00000-0 0  9998
2 49353  60.0000 270.0000 0000000   0.0000   0.0000  4.55247068    13
CTC2_L_00626010-09
1 49354U 22677HO  26037.47799769  .00000000  00000+0  00000-0 0  9994
2 49354  60.0000 270.0000 0000000   0.0000  36.0000  4.55247068    13
CTC2_L_00626010-10
1 49355U 24193EO  26037.47799769  .00000000  00000+0  00000-0 0  9990
2 49355  60.0000 270.0000 0000000   0.0000  72.0000  4.55247068    14
CTC2_L_00626011-01
1 49356U 22478A   26037.47799769  .00000000  00000+0  00000-0 0  9995
2 49356  60.0000 300.0000 0000000   0.0000 120.0000  4.55247068    13
CTC2_L_00626011-02
1 49357U 23474NG  26037.47799769  .00000000  00000+0  00000-0 0  9993
2 49357  60.0000 300.0000 0000000   0.0000 156.0000  4.55247068    13
CTC2_L_00626011-03
1 49358U 26450GN  26037.47799769  .00000000  00000+0  00000-0 0  9991
2 49358  60.0000 300.0000 0000000   0.0000 192.0000  4.55247068    14
CTC2_L_00626011-04
1 49359U 26316UN  26037.47799769  .00000000  00000+0  00000-0 0  9993
2 49359  60.0000 300.0000 0000000   0.0000 228.0000  4.55247068    15
CTC2_L_00626011-05
1 49360U 22847KS  26037.47799769  .00000000  00000+0  00000-0 0  9990
2 49360  60.0000 300.0000 0000000   0.0000 264.0000  4.55247068    17
CTC2_L_00626011-06
1 49361U 22070IW  26037.47799769  .00000000  00000+0  00000-0 0  9999
2 49361  60.0000 300.0000 0000000   0.0000 300.0000  4.55247068    19
CTC2_L_00626011-07
1 49362U 25922OV  26037.47799769  .00000000  00000+0  00000-0 0  9999
2 49362  60.0000 300.0000 0000000   0.0000 336.0000  4.55247068    19
CTC2_L_00626011-08
1 49363U 26595YA  26037.47799769  .00000000  00000+0  00000-0 0  9997
2 49363  60.0000 300.0000 0000000   0.0000  12.0000  4.55247068    11
CTC2_L_00626011-09
1 49364U 25338TI  26037.47799769  .00000000  00000+0  00000-0 0  9992
2 49364  60.0000 300.0000 0000000   0.0000  48.0000  4.55247068    11
CTC2_L_00626011-10
1 49365U 24758TX  26037.47799769  .00000000  00000+0  00000-0 0  9998
2 49365  60.0000 300.0000 0000000   0.0000  84.0000  4.55247068    12
CTC2_L_00626012-01
1 49366U 26725BF  26037.47799769  .00000000  00000+0  00000-0 0  9995
2 49366  60.0000 330.0000 0000000   0.0000 132.0000  4.55247068    10
CTC2_L_00626012-02
1 49367U 26985IA  26037.47799769  .00000000  00000+0  00000-0 0  9994
2 49367  60.0000 330.0000 0000000   0.0000 168.0000  4.55247068    10
CTC2_L_00626012-03
1 49368U 26969RX  26037.47799769  .00000000  00000+0  00000-0 0  9997
2 49368  60.0000 330.0000 0000000   0.0000 204.0000  4.55247068    12
CTC2_L_00626012-04
1 49369U 23942DO  26037.47799769  .00000000  00000+0  00000-0 0  9996
2 49369  60.0000 330.0000 0000000   0.0000 240.0000  4.55247068    13
CTC2_L_00626012-05
1 49370U 23867XJ  26037.47799769  .00000000  00000+0  00000-0 0  9994
2 49370  60.0000 330.0000 0000000   0.0000 276.0000  4.55247068    14
CTC2_L_00626012-06
1 49371U 22697ZU  26037.47799769  .00000000  00000+0  00000-0 0  9995
2 49371  60.0000 330.0000 0000000   0.0000 312.0000  4.55247068    16
CTC2_L_00626012-07
1 49372U 22506NC  26037.47799769  .00000000  00000+0  00000-0 0  9995
2 49372  60.0000 330.0000 0000000   0.0000 348.0000  4.55247068    16
CTC2_L_00626012-08
1 49373U 26707TQ  26037.47799769  .00000000  00000+0  00000-0 0  9993
2 49373  60.0000 330.0000 0000000   0.0000  24.0000  4.55247068    18
CTC2_L_00626012-09
1 49374U 26148MP  26037.47799769  .00000000  00000+0  00000-0 0  9993
2 49374  60.0000 330.0000 0000000   0.0000  60.0000  4.55247068    19
CTC2_L_00626012-10
1 49375U 23152SA  26037.47799769  .00000000  00000+0  00000-0 0  9996
2 49375  60.0000 330.0000 0000000   0.0000  96.0000  4.55247068    19
